{"type": "FeatureCollection", "features": [{"type": "Feature", "properties": {"id": "PV-20->PV-19", "trecho": "PV-20->PV-19", "jusante": "PV-20", "montante": "PV-19", "tipo": "tubo", "logradouro": "RUA FRANCISCO TEIXEIRA NETO", "diametro_m": 1.2, "extensao_proj": 25.0, "pct": 0}, "geometry": {"type": "LineString", "coordinates": [[-44.051907089104155, -22.474302488982335], [-44.05211505439927, -22.47418590776596]]}}, {"type": "Feature", "properties": {"id": "PV-21->PV-20", "trecho": "PV-21->PV-20", "jusante": "PV-21", "montante": "PV-20", "tipo": "tubo", "logradouro": "RUA FRANCISCO TEIXEIRA NETO", "diametro_m": 1.0, "extensao_proj": 40.0, "pct": 0}, "geometry": {"type": "LineString", "coordinates": [[-44.0515741232553, -22.474489019330882], [-44.051907089104155, -22.474302488982335]]}}, {"type": "Feature", "properties": {"id": "PV-22->PV-21", "trecho": "PV-22->PV-21", "jusante": "PV-22", "montante": "PV-21", "tipo": "tubo", "logradouro": "RUA FRANCISCO TEIXEIRA NETO", "diametro_m": 1.2, "extensao_proj": 40.0, "pct": 0}, "geometry": {"type": "LineString", "coordinates": [[-44.05124022960613, -22.474674112300338], [-44.0515741232553, -22.474489019330882]]}}, {"type": "Feature", "properties": {"id": "PV-23->PV-22", "trecho": "PV-23->PV-22", "jusante": "PV-23", "montante": "PV-22", "tipo": "tubo", "logradouro": "RUA FRANCISCO TEIXEIRA NETO", "diametro_m": 1.0, "extensao_proj": 40.0, "pct": 0}, "geometry": {"type": "LineString", "coordinates": [[-44.05091385075068, -22.474870441781192], [-44.05124022960613, -22.474674112300338]]}}, {"type": "Feature", "properties": {"id": "PV-24->PV-23", "trecho": "PV-24->PV-23", "jusante": "PV-24", "montante": "PV-23", "tipo": "tubo", "logradouro": "RUA FRANCISCO TEIXEIRA NETO", "diametro_m": 1.0, "extensao_proj": 40.0, "pct": 0}, "geometry": {"type": "LineString", "coordinates": [[-44.050586608434806, -22.475065125191993], [-44.05091385075068, -22.474870441781192]]}}, {"type": "Feature", "properties": {"id": "PV-25->PV-24", "trecho": "PV-25->PV-24", "jusante": "PV-25", "montante": "PV-24", "tipo": "tubo", "logradouro": "RUA FRANCISCO TEIXEIRA NETO", "diametro_m": 1.0, "extensao_proj": 40.0, "pct": 0}, "geometry": {"type": "LineString", "coordinates": [[-44.050202235884655, -22.475302531611785], [-44.050586608434806, -22.475065125191993]]}}, {"type": "Feature", "properties": {"id": "PV-26->PV-25", "trecho": "PV-26->PV-25", "jusante": "PV-26", "montante": "PV-25", "tipo": "tubo", "logradouro": "AV, ALVARO GON\u00c7ELVES", "diametro_m": 1.2, "extensao_proj": 34.92, "pct": 0}, "geometry": {"type": "LineString", "coordinates": [[-44.050218701350055, -22.47498745019254], [-44.050202235884655, -22.475302531611785]]}}, {"type": "Feature", "properties": {"id": "PV-27->PV-26", "trecho": "PV-27->PV-26", "jusante": "PV-27", "montante": "PV-26", "tipo": "tubo", "logradouro": "AV, ALVARO GON\u00c7ELVES", "diametro_m": 1.0, "extensao_proj": 25.13, "pct": 0}, "geometry": {"type": "LineString", "coordinates": [[-44.050258242270445, -22.47483190012258], [-44.050218701350055, -22.47498745019254]]}}, {"type": "Feature", "properties": {"id": "PV-28->PV-27", "trecho": "PV-28->PV-27", "jusante": "PV-28", "montante": "PV-27", "tipo": "tubo", "logradouro": "AV, ALVARO GON\u00c7ELVES", "diametro_m": 1.0, "extensao_proj": 25.13, "pct": 0}, "geometry": {"type": "LineString", "coordinates": [[-44.050309107037464, -22.47451442358563], [-44.050258242270445, -22.47483190012258]]}}, {"type": "Feature", "properties": {"id": "PV-29->PV-28", "trecho": "PV-29->PV-28", "jusante": "PV-29", "montante": "PV-28", "tipo": "tubo", "logradouro": "AV, ALVARO GON\u00c7ELVES", "diametro_m": 1.0, "extensao_proj": 41.54, "pct": 0}, "geometry": {"type": "LineString", "coordinates": [[-44.05047069908494, -22.474188170834243], [-44.050309107037464, -22.47451442358563]]}}, {"type": "Feature", "properties": {"id": "PV-30->PV-29", "trecho": "PV-30->PV-29", "jusante": "PV-30", "montante": "PV-29", "tipo": "tubo", "logradouro": "AV, ALVARO GON\u00c7ELVES", "diametro_m": 1.0, "extensao_proj": 41.54, "pct": 0}, "geometry": {"type": "LineString", "coordinates": [[-44.05061043043897, -22.473840303927567], [-44.05047069908494, -22.474188170834243]]}}, {"type": "Feature", "properties": {"id": "PV-31->PV-30", "trecho": "PV-31->PV-30", "jusante": "PV-31", "montante": "PV-30", "tipo": "tubo", "logradouro": "AV, ALVARO GON\u00c7ELVES", "diametro_m": 1.0, "extensao_proj": 43.85, "pct": 0}, "geometry": {"type": "LineString", "coordinates": [[-44.05076456790921, -22.473471175310337], [-44.05061043043897, -22.473840303927567]]}}, {"type": "Feature", "properties": {"id": "PV-32->PV-31", "trecho": "PV-32->PV-31", "jusante": "PV-32", "montante": "PV-31", "tipo": "tubo", "logradouro": "AV, ALVARO GON\u00c7ELVES", "diametro_m": 1.0, "extensao_proj": 43.28, "pct": 0}, "geometry": {"type": "LineString", "coordinates": [[-44.05091837848916, -22.4731070746613], [-44.05076456790921, -22.473471175310337]]}}, {"type": "Feature", "properties": {"id": "PV-49->PV-30", "trecho": "PV-49->PV-30", "jusante": "PV-49", "montante": "PV-30", "tipo": "tubo", "logradouro": "RUA DR. ISAIS SALGADO PEREIRA", "diametro_m": 0.6, "extensao_proj": 30.9, "pct": 0}, "geometry": {"type": "LineString", "coordinates": [[-44.050428393223214, -22.473968082837235], [-44.05061043043897, -22.473840303927567]]}}, {"type": "Feature", "properties": {"id": "PV-50->PV-49", "trecho": "PV-50->PV-49", "jusante": "PV-50", "montante": "PV-49", "tipo": "tubo", "logradouro": "RUA DR. ISAIS SALGADO PEREIRA", "diametro_m": 0.6, "extensao_proj": 30.0, "pct": 0}, "geometry": {"type": "LineString", "coordinates": [[-44.05018548750352, -22.47411760305819], [-44.050428393223214, -22.473968082837235]]}}, {"type": "Feature", "properties": {"id": "PV-51->PV-50", "trecho": "PV-51->PV-50", "jusante": "PV-51", "montante": "PV-50", "tipo": "tubo", "logradouro": "RUA DR. ISAIS SALGADO PEREIRA", "diametro_m": 0.6, "extensao_proj": 30.0, "pct": 0}, "geometry": {"type": "LineString", "coordinates": [[-44.04994147049605, -22.474267116348297], [-44.05018548750352, -22.47411760305819]]}}, {"type": "Feature", "properties": {"id": "PV-52->PV-51", "trecho": "PV-52->PV-51", "jusante": "PV-52", "montante": "PV-51", "tipo": "tubo", "logradouro": "RUA DR. ISAIS SALGADO PEREIRA", "diametro_m": 0.6, "extensao_proj": 30.0, "pct": 0}, "geometry": {"type": "LineString", "coordinates": [[-44.049699952217956, -22.474416643976348], [-44.04994147049605, -22.474267116348297]]}}, {"type": "Feature", "properties": {"id": "PV-53->PV-52", "trecho": "PV-53->PV-52", "jusante": "PV-53", "montante": "PV-52", "tipo": "tubo", "logradouro": "RUA DR. ISAIS SALGADO PEREIRA", "diametro_m": 0.6, "extensao_proj": 30.0, "pct": 0}, "geometry": {"type": "LineString", "coordinates": [[-44.049454689882474, -22.47474679631754], [-44.049699952217956, -22.474416643976348]]}}, {"type": "Feature", "properties": {"id": "PV-54->PV-53", "trecho": "PV-54->PV-53", "jusante": "PV-54", "montante": "PV-53", "tipo": "tubo", "logradouro": "RUA DR. ISAIS SALGADO PEREIRA", "diametro_m": 0.6, "extensao_proj": 34.68, "pct": 0}, "geometry": {"type": "LineString", "coordinates": [[-44.04917505636427, -22.474738991824985], [-44.049454689882474, -22.47474679631754]]}}, {"type": "Feature", "properties": {"id": "PV-55->PV-54", "trecho": "PV-55->PV-54", "jusante": "PV-55", "montante": "PV-54", "tipo": "tubo", "logradouro": "RUA DR. ISAIS SALGADO PEREIRA", "diametro_m": 0.6, "extensao_proj": 33.0, "pct": 0}, "geometry": {"type": "LineString", "coordinates": [[-44.048907271482484, -22.474903454913825], [-44.04917505636427, -22.474738991824985]]}}, {"type": "Feature", "properties": {"id": "PV-56->PV-55", "trecho": "PV-56->PV-55", "jusante": "PV-56", "montante": "PV-55", "tipo": "tubo", "logradouro": "RUA DR. ISAIS SALGADO PEREIRA", "diametro_m": 0.6, "extensao_proj": 33.0, "pct": 0}, "geometry": {"type": "LineString", "coordinates": [[-44.04863976367334, -22.475067919171007], [-44.048907271482484, -22.474903454913825]]}}, {"type": "Feature", "properties": {"id": "PV-57->PV-56", "trecho": "PV-57->PV-56", "jusante": "PV-57", "montante": "PV-56", "tipo": "tubo", "logradouro": "RUA DR. ISAIS SALGADO PEREIRA", "diametro_m": 0.6, "extensao_proj": 33.52, "pct": 0}, "geometry": {"type": "LineString", "coordinates": [[-44.048367887691875, -22.475234697315397], [-44.04863976367334, -22.475067919171007]]}}, {"type": "Feature", "properties": {"id": "PV-58->PV-57", "trecho": "PV-58->PV-57", "jusante": "PV-58", "montante": "PV-57", "tipo": "tubo", "logradouro": "RUA DR. ISAIS SALGADO PEREIRA", "diametro_m": 0.6, "extensao_proj": 33.0, "pct": 0}, "geometry": {"type": "LineString", "coordinates": [[-44.048100198036344, -22.475398906632922], [-44.048367887691875, -22.475234697315397]]}}, {"type": "Feature", "properties": {"id": "PV-59->PV-58", "trecho": "PV-59->PV-58", "jusante": "PV-59", "montante": "PV-58", "tipo": "tubo", "logradouro": "RUA DR. ISAIS SALGADO PEREIRA", "diametro_m": 0.6, "extensao_proj": 33.0, "pct": 0}, "geometry": {"type": "LineString", "coordinates": [[-44.04783123871055, -22.47574391795128], [-44.048100198036344, -22.475398906632922]]}}, {"type": "Feature", "properties": {"id": "PV-60->PV-59", "trecho": "PV-60->PV-59", "jusante": "PV-60", "montante": "PV-59", "tipo": "tubo", "logradouro": "RUA JO\u00c3O ANTONIO CAMERANO", "diametro_m": 0.6, "extensao_proj": 25.16, "pct": 0}, "geometry": {"type": "LineString", "coordinates": [[-44.04763072528033, -22.47552580335353], [-44.04783123871055, -22.47574391795128]]}}, {"type": "Feature", "properties": {"id": "PV-61->PV-60", "trecho": "PV-61->PV-60", "jusante": "PV-61", "montante": "PV-60", "tipo": "tubo", "logradouro": "RUA JO\u00c3O ANTONIO CAMERANO", "diametro_m": 0.6, "extensao_proj": 25.16, "pct": 0}, "geometry": {"type": "LineString", "coordinates": [[-44.047497646884786, -22.47533454434703], [-44.04763072528033, -22.47552580335353]]}}, {"type": "Feature", "properties": {"id": "PV-66->PV-28", "trecho": "PV-66->PV-28", "jusante": "PV-66", "montante": "PV-28", "tipo": "tubo", "logradouro": "RUA ANA SILENE DE ALMEIDA", "diametro_m": 0.6, "extensao_proj": 18.95, "pct": 0}, "geometry": {"type": "LineString", "coordinates": [[-44.05026074486468, -22.47462723639527], [-44.050309107037464, -22.47451442358563]]}}, {"type": "Feature", "properties": {"id": "PV-67->PV-66", "trecho": "PV-67->PV-66", "jusante": "PV-67", "montante": "PV-66", "tipo": "tubo", "logradouro": "RUA ANA SILENE DE ALMEIDA", "diametro_m": 0.6, "extensao_proj": 40.0, "pct": 0}, "geometry": {"type": "LineString", "coordinates": [[-44.049935435182405, -22.47474950822382], [-44.05026074486468, -22.47462723639527]]}}, {"type": "Feature", "properties": {"id": "PV-68->PV-67", "trecho": "PV-68->PV-67", "jusante": "PV-68", "montante": "PV-67", "tipo": "tubo", "logradouro": "RUA ANA SILENE DE ALMEIDA", "diametro_m": 0.6, "extensao_proj": 40.0, "pct": 0}, "geometry": {"type": "LineString", "coordinates": [[-44.049609827002854, -22.475017212263605], [-44.049935435182405, -22.47474950822382]]}}, {"type": "Feature", "properties": {"id": "PV-69->PV-68", "trecho": "PV-69->PV-68", "jusante": "PV-69", "montante": "PV-68", "tipo": "tubo", "logradouro": "RUA ANA SILENE DE ALMEIDA", "diametro_m": 0.6, "extensao_proj": 40.0, "pct": 0}, "geometry": {"type": "LineString", "coordinates": [[-44.04928485524177, -22.47521183002637], [-44.049609827002854, -22.475017212263605]]}}, {"type": "Feature", "properties": {"id": "PV-70->PV-69", "trecho": "PV-70->PV-69", "jusante": "PV-70", "montante": "PV-69", "tipo": "tubo", "logradouro": "RUA ANA SILENE DE ALMEIDA", "diametro_m": 0.6, "extensao_proj": 23.3, "pct": 0}, "geometry": {"type": "LineString", "coordinates": [[-44.04909568297688, -22.475327340585018], [-44.04928485524177, -22.47521183002637]]}}, {"type": "Feature", "properties": {"id": "PV-71->PV-70", "trecho": "PV-71->PV-70", "jusante": "PV-71", "montante": "PV-70", "tipo": "tubo", "logradouro": "RUA ANA SILENE DE ALMEIDA", "diametro_m": 0.6, "extensao_proj": 23.3, "pct": 0}, "geometry": {"type": "LineString", "coordinates": [[-44.04890552988621, -22.475442850412612], [-44.04909568297688, -22.475327340585018]]}}, {"type": "Feature", "properties": {"id": "PV-72->PV-71", "trecho": "PV-72->PV-71", "jusante": "PV-72", "montante": "PV-71", "tipo": "tubo", "logradouro": "RUA ANA SILENE DE ALMEIDA", "diametro_m": 0.6, "extensao_proj": 37.0, "pct": 0}, "geometry": {"type": "LineString", "coordinates": [[-44.04860628336114, -22.475627050155246], [-44.04890552988621, -22.475442850412612]]}}, {"type": "Feature", "properties": {"id": "PV-73->PV-72", "trecho": "PV-73->PV-72", "jusante": "PV-73", "montante": "PV-72", "tipo": "tubo", "logradouro": "RUA ANA SILENE DE ALMEIDA", "diametro_m": 0.6, "extensao_proj": 37.0, "pct": 0}, "geometry": {"type": "LineString", "coordinates": [[-44.048306341816485, -22.47581124521294], [-44.04860628336114, -22.475627050155246]]}}, {"type": "Feature", "properties": {"id": "PV-74->PV-73", "trecho": "PV-74->PV-73", "jusante": "PV-74", "montante": "PV-73", "tipo": "tubo", "logradouro": "RUA ANA SILENE DE ALMEIDA", "diametro_m": 0.6, "extensao_proj": 37.0, "pct": 0}, "geometry": {"type": "LineString", "coordinates": [[-44.048006260641564, -22.47599543886181], [-44.048306341816485, -22.47581124521294]]}}, {"type": "Feature", "properties": {"id": "PV-75->PV-74", "trecho": "PV-75->PV-74", "jusante": "PV-75", "montante": "PV-74", "tipo": "tubo", "logradouro": "RUA ANA SILENE DE ALMEIDA", "diametro_m": 0.6, "extensao_proj": 38.02, "pct": 0}, "geometry": {"type": "LineString", "coordinates": [[-44.04769552417205, -22.476351488822672], [-44.048006260641564, -22.47599543886181]]}}, {"type": "Feature", "properties": {"id": "PV-76->PV-75", "trecho": "PV-76->PV-75", "jusante": "PV-76", "montante": "PV-75", "tipo": "tubo", "logradouro": "RUA ONZE", "diametro_m": 0.6, "extensao_proj": 24.37, "pct": 0}, "geometry": {"type": "LineString", "coordinates": [[-44.04755966277514, -22.47618173881185], [-44.04769552417205, -22.476351488822672]]}}, {"type": "Feature", "properties": {"id": "PV-77->PV-76", "trecho": "PV-77->PV-76", "jusante": "PV-77", "montante": "PV-76", "tipo": "tubo", "logradouro": "RUA ONZE", "diametro_m": 0.4, "extensao_proj": 25.05, "pct": 0}, "geometry": {"type": "LineString", "coordinates": [[-44.047426223928454, -22.47599242451555], [-44.04755966277514, -22.47618173881185]]}}, {"type": "Feature", "properties": {"id": "PV-40->PV-32", "trecho": "PV-40->PV-32", "jusante": "PV-40", "montante": "PV-32", "tipo": "tubo", "logradouro": "RUA IVAIR STABELLINE", "diametro_m": 0.6, "extensao_proj": 41.53, "pct": 0}, "geometry": {"type": "LineString", "coordinates": [[-44.050650619843374, -22.473287782736744], [-44.05091837848916, -22.4731070746613]]}}, {"type": "Feature", "properties": {"id": "PV-41->PV-40", "trecho": "PV-41->PV-40", "jusante": "PV-41", "montante": "PV-40", "tipo": "tubo", "logradouro": "RUA IVAIR STABELLINE", "diametro_m": 0.6, "extensao_proj": 36.0, "pct": 0}, "geometry": {"type": "LineString", "coordinates": [[-44.05035776862242, -22.473466919680934], [-44.050650619843374, -22.473287782736744]]}}, {"type": "Feature", "properties": {"id": "PV-42->PV-41", "trecho": "PV-42->PV-41", "jusante": "PV-42", "montante": "PV-41", "tipo": "tubo", "logradouro": "RUA IVAIR STABELLINE", "diametro_m": 0.6, "extensao_proj": 36.0, "pct": 0}, "geometry": {"type": "LineString", "coordinates": [[-44.05006741589159, -22.473646070785183], [-44.05035776862242, -22.473466919680934]]}}, {"type": "Feature", "properties": {"id": "PV-43->PV-42", "trecho": "PV-43->PV-42", "jusante": "PV-43", "montante": "PV-42", "tipo": "tubo", "logradouro": "RUA IVAIR STABELLINE", "diametro_m": 0.6, "extensao_proj": 36.0, "pct": 0}, "geometry": {"type": "LineString", "coordinates": [[-44.04977456319106, -22.473825206610243], [-44.05006741589159, -22.473646070785183]]}}, {"type": "Feature", "properties": {"id": "PV-44->PV-43", "trecho": "PV-44->PV-43", "jusante": "PV-44", "montante": "PV-43", "tipo": "tubo", "logradouro": "RUA IVAIR STABELLINE", "diametro_m": 0.4, "extensao_proj": 36.0, "pct": 0}, "geometry": {"type": "LineString", "coordinates": [[-44.0494828307516, -22.47400437644558], [-44.04977456319106, -22.473825206610243]]}}, {"type": "Feature", "properties": {"id": "PV-45->PV-44", "trecho": "PV-45->PV-44", "jusante": "PV-45", "montante": "PV-44", "tipo": "tubo", "logradouro": "RUA IVAIR STABELLINE", "diametro_m": 0.4, "extensao_proj": 35.99, "pct": 0}, "geometry": {"type": "LineString", "coordinates": [[-44.049190711694905, -22.474183675194123], [-44.0494828307516, -22.47400437644558]]}}, {"type": "Feature", "properties": {"id": "PV-46->PV-45", "trecho": "PV-46->PV-45", "jusante": "PV-46", "montante": "PV-45", "tipo": "tubo", "logradouro": "RUA IVAIR STABELLINE", "diametro_m": 0.4, "extensao_proj": 40.71, "pct": 0}, "geometry": {"type": "LineString", "coordinates": [[-44.04885931115299, -22.474567067758333], [-44.049190711694905, -22.474183675194123]]}}, {"type": "Feature", "properties": {"id": "PV-47->PV-46", "trecho": "PV-47->PV-46", "jusante": "PV-47", "montante": "PV-46", "tipo": "tubo", "logradouro": "RUA SEIS", "diametro_m": 0.4, "extensao_proj": 24.99, "pct": 0}, "geometry": {"type": "LineString", "coordinates": [[-44.048638468098986, -22.474282214203384], [-44.04885931115299, -22.474567067758333]]}}, {"type": "Feature", "properties": {"id": "PV-64->PV-61", "trecho": "PV-64->PV-61", "jusante": "PV-64", "montante": "PV-61", "tipo": "tubo", "logradouro": "RUA IVAIR STABELLINE", "diametro_m": 0.4, "extensao_proj": 32.4, "pct": 0}, "geometry": {"type": "LineString", "coordinates": [[-44.04789286717583, -22.474981569511222], [-44.047497646884786, -22.47533454434703]]}}, {"type": "Feature", "properties": {"id": "PV-65->PV-64", "trecho": "PV-65->PV-64", "jusante": "PV-65", "montante": "PV-64", "tipo": "tubo", "logradouro": "RUA IVAIR STABELLINE", "diametro_m": 0.4, "extensao_proj": 40.0, "pct": 0}, "geometry": {"type": "LineString", "coordinates": [[-44.04821695846456, -22.47478218797294], [-44.04789286717583, -22.474981569511222]]}}, {"type": "Feature", "properties": {"id": "PV-62->PV-61", "trecho": "PV-62->PV-61", "jusante": "PV-62", "montante": "PV-61", "tipo": "tubo", "logradouro": "RUA JO\u00c3O ANTONIO CAMERANO", "diametro_m": 0.4, "extensao_proj": 33.0, "pct": 0}, "geometry": {"type": "LineString", "coordinates": [[-44.04732530592761, -22.475083726469883], [-44.047497646884786, -22.47533454434703]]}}, {"type": "Feature", "properties": {"id": "PV-63->PV-62", "trecho": "PV-63->PV-62", "jusante": "PV-63", "montante": "PV-62", "tipo": "tubo", "logradouro": "RUA JO\u00c3O ANTONIO CAMERANO", "diametro_m": 0.4, "extensao_proj": 33.02, "pct": 0}, "geometry": {"type": "LineString", "coordinates": [[-44.04715193247973, -22.474832762207882], [-44.04732530592761, -22.475083726469883]]}}, {"type": "Feature", "properties": {"id": "PV-79->PV-77", "trecho": "PV-79->PV-77", "jusante": "PV-79", "montante": "PV-77", "tipo": "tubo", "logradouro": "RUA DR, ISAIS SALGADO PEREIRA", "diametro_m": 0.4, "extensao_proj": 24.97, "pct": 0}, "geometry": {"type": "LineString", "coordinates": [[-44.047628673569996, -22.47586818713961], [-44.047426223928454, -22.47599242451555]]}}, {"type": "Feature", "properties": {"id": "PV-80->PV-77", "trecho": "PV-80->PV-77", "jusante": "PV-80", "montante": "PV-77", "tipo": "tubo", "logradouro": "RUA DR, ISAIS SALGADO PEREIRA", "diametro_m": 0.4, "extensao_proj": 25.07, "pct": 0}, "geometry": {"type": "LineString", "coordinates": [[-44.0472240508938, -22.475936583185135], [-44.047426223928454, -22.47599242451555]]}}, {"type": "Feature", "properties": {"id": "PV-78->PV-77", "trecho": "PV-78->PV-77", "jusante": "PV-78", "montante": "PV-77", "tipo": "tubo", "logradouro": "RUA ONZE", "diametro_m": 0.4, "extensao_proj": 40.0, "pct": 0}, "geometry": {"type": "LineString", "coordinates": [[-44.04714312768689, -22.475664157144273], [-44.047426223928454, -22.47599242451555]]}}, {"type": "Feature", "properties": {"id": "PV-11->PV-10", "trecho": "PV-11->PV-10", "jusante": "PV-11", "montante": "PV-10", "tipo": "tubo", "logradouro": "RUA ONZE", "diametro_m": 0.6, "extensao_proj": 27.83, "pct": 0}, "geometry": {"type": "LineString", "coordinates": [[-44.04637685898784, -22.474562921063804], [-44.04632648196417, -22.47426333782036]]}}, {"type": "Feature", "properties": {"id": "PV-12->PV-11", "trecho": "PV-12->PV-11", "jusante": "PV-12", "montante": "PV-11", "tipo": "tubo", "logradouro": "RUA ONZE", "diametro_m": 0.6, "extensao_proj": 27.83, "pct": 0}, "geometry": {"type": "LineString", "coordinates": [[-44.04652388126126, -22.474735942168227], [-44.04637685898784, -22.474562921063804]]}}, {"type": "Feature", "properties": {"id": "PV-17->PV-12", "trecho": "PV-17->PV-12", "jusante": "PV-17", "montante": "PV-12", "tipo": "tubo", "logradouro": "RUA DEZ", "diametro_m": 0.6, "extensao_proj": 25.98, "pct": 0}, "geometry": {"type": "LineString", "coordinates": [[-44.04683351540741, -22.4745512830805], [-44.04652388126126, -22.474735942168227]]}}, {"type": "Feature", "properties": {"id": "PV-18->PV-17", "trecho": "PV-18->PV-17", "jusante": "PV-18", "montante": "PV-17", "tipo": "tubo", "logradouro": "RUA DEZ", "diametro_m": 0.4, "extensao_proj": 25.98, "pct": 0}, "geometry": {"type": "LineString", "coordinates": [[-44.04704250530405, -22.47441955804656], [-44.04683351540741, -22.4745512830805]]}}, {"type": "Feature", "properties": {"id": "PV-13->PV-12", "trecho": "PV-13->PV-12", "jusante": "PV-13", "montante": "PV-12", "tipo": "tubo", "logradouro": "RUA DEZ", "diametro_m": 0.6, "extensao_proj": 18.36, "pct": 0}, "geometry": {"type": "LineString", "coordinates": [[-44.046424915539006, -22.474809046912448], [-44.04652388126126, -22.474735942168227]]}}, {"type": "Feature", "properties": {"id": "PV-14->PV-13", "trecho": "PV-14->PV-13", "jusante": "PV-14", "montante": "PV-13", "tipo": "tubo", "logradouro": "RUA DEZ", "diametro_m": 0.6, "extensao_proj": 24.9, "pct": 0}, "geometry": {"type": "LineString", "coordinates": [[-44.046223778280236, -22.47493507670199], [-44.046424915539006, -22.474809046912448]]}}, {"type": "Feature", "properties": {"id": "PV-15->PV-14", "trecho": "PV-15->PV-14", "jusante": "PV-15", "montante": "PV-14", "tipo": "tubo", "logradouro": "RUA TREZE", "diametro_m": 0.4, "extensao_proj": 40.0, "pct": 0}, "geometry": {"type": "LineString", "coordinates": [[-44.04633963736845, -22.475326687266364], [-44.046223778280236, -22.47493507670199]]}}, {"type": "Feature", "properties": {"id": "PV-16->PV-12", "trecho": "PV-16->PV-12", "jusante": "PV-16", "montante": "PV-12", "tipo": "tubo", "logradouro": "RUA ONZE", "diametro_m": 0.4, "extensao_proj": 40.0, "pct": 0}, "geometry": {"type": "LineString", "coordinates": [[-44.04676913448589, -22.47513821915461], [-44.04652388126126, -22.474735942168227]]}}]}